[{"OBJECT_NAME":"EMISAT","OBJECT_ID":"2019-018A","EPOCH":"2026-03-09T23:07:44.271840","MEAN_MOTION":14.43625084,"ECCENTRICITY":0.00191389,"INCLINATION":98.4768,"RA_OF_ASC_NODE":128.257,"ARG_OF_PERICENTER":153.4906,"MEAN_ANOMALY":206.7268,"EPHEMERIS_TYPE":0,"CLASSIFICATION_TYPE":"U","NORAD_CAT_ID":44078,"ELEMENT_SET_NO":999,"REV_AT_EPOCH":36574,"BSTAR":5.8527741e-5,"MEAN_MOTION_DOT":1.55e-6,"MEAN_MOTION_DDOT":0},{"OBJECT_NAME":"OAO 2","OBJECT_ID":"1968-110A","EPOCH":"2026-03-09T13:49:36.155424","MEAN_MOTION":14.47308072,"ECCENTRICITY":0.0005852,"INCLINATION":34.9927,"RA_OF_ASC_NODE":265.8579,"ARG_OF_PERICENTER":204.0746,"MEAN_ANOMALY":155.9671,"EPHEMERIS_TYPE":0,"CLASSIFICATION_TYPE":"U","NORAD_CAT_ID":3597,"ELEMENT_SET_NO":999,"REV_AT_EPOCH":1908,"BSTAR":0.00010274,"MEAN_MOTION_DOT":3.62e-6,"MEAN_MOTION_DDOT":0}]
